{
  "packFormatVersion": 1,
  "source": "nasa-exoplanet-archive-pscomppars",
  "generatedAtIso": "2026-06-12T00:00:00.000Z",
  "systems": [
    {
      "id": "exo:hd-140901",
      "name": "HD 140901",
      "star": {
        "id": "exo:hd-140901",
        "kind": "star",
        "name": "HD 140901",
        "positionPc": [
          13.697291590238953,
          -5.768803618705551,
          3.428267158289833
        ],
        "absMag": 5.093252121609599,
        "colorIndexBV": 0.6975756433697909
      },
      "bodies": [
        {
          "id": "exo:hd-140901:star",
          "kind": "planet",
          "parentId": "exo:hd-140901",
          "radiusKm": 660915,
          "unlit": true,
          "surfaceColorLinear": [
            1,
            0.8669516412859019,
            0.7574159126027978
          ]
        },
        {
          "id": "exo:hd-140901:b",
          "kind": "planet",
          "name": "HD 140901 b",
          "parentId": "exo:hd-140901",
          "radiusKm": 25929.97,
          "elements": {
            "semiMajorAxisAu": 0.085,
            "eccentricity": 0.472,
            "inclinationRad": 0.8006503509423085,
            "ascendingNodeLongitudeRad": 5.8477827880141415,
            "argumentOfPeriapsisRad": 1.8780615416084983,
            "meanAnomalyAtEpochRad": 2.222361722103219,
            "epochJD": 2451545,
            "muKm3S2": 131385315617.81999
          },
          "surfaceColorLinear": [
            0.25,
            0.35,
            0.45
          ]
        },
        {
          "id": "exo:hd-140901:c",
          "kind": "planet",
          "name": "HD 140901 c",
          "parentId": "exo:hd-140901",
          "radiusKm": 85371.40000000001,
          "elements": {
            "semiMajorAxisAu": 11.8,
            "eccentricity": 0.77,
            "inclinationRad": 0.8006503509423085,
            "ascendingNodeLongitudeRad": 5.8477827880141415,
            "argumentOfPeriapsisRad": 5.218534463463045,
            "meanAnomalyAtEpochRad": 5.335025068271238,
            "epochJD": 2451545,
            "muKm3S2": 131385315617.81999
          },
          "surfaceColorLinear": [
            0.75,
            0.78,
            0.82
          ]
        }
      ]
    },
    {
      "id": "exo:hd-141004",
      "name": "HD 141004",
      "star": {
        "id": "exo:hd-141004",
        "kind": "star",
        "name": "HD 141004",
        "positionPc": [
          8.167629549610597,
          2.2951486750438805,
          8.222628480502378
        ],
        "absMag": 4.053268128360155,
        "colorIndexBV": 0.6212991450545033
      },
      "bodies": [
        {
          "id": "exo:hd-141004:star",
          "kind": "planet",
          "parentId": "exo:hd-141004",
          "radiusKm": 966586.1004,
          "unlit": true,
          "surfaceColorLinear": [
            1,
            0.9065940651213887,
            0.8198224918553874
          ]
        },
        {
          "id": "exo:hd-141004:b",
          "kind": "planet",
          "name": "HD 141004 b",
          "parentId": "exo:hd-141004",
          "radiusKm": 24018.670000000002,
          "elements": {
            "semiMajorAxisAu": 0.1238,
            "eccentricity": 0.16,
            "inclinationRad": 2.7603672620122106,
            "ascendingNodeLongitudeRad": 5.248453524756104,
            "argumentOfPeriapsisRad": 0.3400006102640073,
            "meanAnomalyAtEpochRad": 4.304286626494994,
            "epochJD": 2451545,
            "muKm3S2": 139600746504.69427
          },
          "surfaceColorLinear": [
            0.25,
            0.35,
            0.45
          ]
        }
      ]
    },
    {
      "id": "exo:hd-141399",
      "name": "HD 141399",
      "star": {
        "id": "exo:hd-141399",
        "kind": "star",
        "name": "HD 141399",
        "positionPc": [
          6.104165929834114,
          22.763128517146562,
          28.545227692902237
        ],
        "absMag": 4.366559771414517,
        "colorIndexBV": 0.7004967427680243
      },
      "bodies": [
        {
          "id": "exo:hd-141399:star",
          "kind": "planet",
          "parentId": "exo:hd-141399",
          "radiusKm": 965100.0852,
          "unlit": true,
          "surfaceColorLinear": [
            1,
            0.8654956586477645,
            0.7551359668118964
          ]
        },
        {
          "id": "exo:hd-141399:b",
          "kind": "planet",
          "name": "HD 141399 b",
          "parentId": "exo:hd-141399",
          "radiusKm": 91105.3,
          "elements": {
            "semiMajorAxisAu": 0.415,
            "eccentricity": 0.04,
            "inclinationRad": 1.9176274909719058,
            "ascendingNodeLongitudeRad": 5.437264597540869,
            "argumentOfPeriapsisRad": -1.5707963267948966,
            "meanAnomalyAtEpochRad": 1.0383137636730935,
            "epochJD": 2451545,
            "muKm3S2": 142002310819.26
          },
          "surfaceColorLinear": [
            0.25,
            0.35,
            0.45
          ]
        },
        {
          "id": "exo:hd-141399:c",
          "kind": "planet",
          "name": "HD 141399 c",
          "parentId": "exo:hd-141399",
          "radiusKm": 86645.59999999999,
          "elements": {
            "semiMajorAxisAu": 0.689,
            "eccentricity": 0.048,
            "inclinationRad": 1.9176274909719058,
            "ascendingNodeLongitudeRad": 5.437264597540869,
            "argumentOfPeriapsisRad": -2.443460952792061,
            "meanAnomalyAtEpochRad": 4.120855527110573,
            "epochJD": 2451545,
            "muKm3S2": 142002310819.26
          },
          "surfaceColorLinear": [
            0.25,
            0.35,
            0.45
          ]
        },
        {
          "id": "exo:hd-141399:d",
          "kind": "planet",
          "name": "HD 141399 d",
          "parentId": "exo:hd-141399",
          "radiusKm": 87282.7,
          "elements": {
            "semiMajorAxisAu": 2.09,
            "eccentricity": 0.074,
            "inclinationRad": 1.9176274909719058,
            "ascendingNodeLongitudeRad": 5.437264597540869,
            "argumentOfPeriapsisRad": -2.443460952792061,
            "meanAnomalyAtEpochRad": 0.009973130940934898,
            "epochJD": 2451545,
            "muKm3S2": 142002310819.26
          },
          "surfaceColorLinear": [
            0.25,
            0.35,
            0.45
          ]
        },
        {
          "id": "exo:hd-141399:e",
          "kind": "planet",
          "name": "HD 141399 e",
          "parentId": "exo:hd-141399",
          "radiusKm": 89831.09999999999,
          "elements": {
            "semiMajorAxisAu": 5,
            "eccentricity": 0.26,
            "inclinationRad": 1.9176274909719058,
            "ascendingNodeLongitudeRad": 5.437264597540869,
            "argumentOfPeriapsisRad": -0.17453292519943295,
            "meanAnomalyAtEpochRad": 5.822322334386909,
            "epochJD": 2451545,
            "muKm3S2": 142002310819.26
          },
          "surfaceColorLinear": [
            0.75,
            0.78,
            0.82
          ]
        }
      ]
    },
    {
      "id": "exo:hd-141937",
      "name": "HD 141937",
      "star": {
        "id": "exo:hd-141937",
        "kind": "star",
        "name": "HD 141937",
        "positionPc": [
          29.485686945931967,
          -4.202153715174755,
          15.032383649007494
        ],
        "absMag": 4.633726592276261,
        "colorIndexBV": 0.6253572240767281
      },
      "bodies": [
        {
          "id": "exo:hd-141937:star",
          "kind": "planet",
          "parentId": "exo:hd-141937",
          "radiusKm": 716571,
          "unlit": true,
          "surfaceColorLinear": [
            1,
            0.9044026978151934,
            0.8163567196472187
          ]
        },
        {
          "id": "exo:hd-141937:b",
          "kind": "planet",
          "name": "HD 141937 b",
          "parentId": "exo:hd-141937",
          "radiusKm": 79000.40000000001,
          "elements": {
            "semiMajorAxisAu": 1.54,
            "eccentricity": 0.46,
            "inclinationRad": 2.2114869953630376,
            "ascendingNodeLongitudeRad": 0.7699131916205043,
            "argumentOfPeriapsisRad": 3.3632494685930725,
            "meanAnomalyAtEpochRad": 5.03057781146097,
            "epochJD": 2451545,
            "muKm3S2": 144656559619.62003
          },
          "surfaceColorLinear": [
            0.25,
            0.35,
            0.45
          ]
        }
      ]
    }
  ]
}
